SatCatId,ObjectName,LaunchYear,OrbitalPeriod,LaunchMass,StatusCode,Inclination,Status,UcsData,OrbitClassEstimated,LaunchSiteCountry,Owner,UseType,Purpose,LaunchVehicleClass,TLE1,TLE2,MeanMotion,Eccentricity,OrbitClass
47540,FLOCK 4S-20,2021,94.5,4.0,+,97.41,Active,1,LEO,USA,USA,Commercial,Earth Observation,Falcon,1 47540U 21006EA  23064.14785321  .00036728  00000+0  15152-2 0  9996,2 47540  97.4095 124.2148 0009844  88.7148 271.5217 15.23911741115915,15.23911741,0.0009844,LEO
47541,HIBER-4,2021,94.67,3.0,+,97.4,Active,1,LEO,USA,Netherlands,Commercial,Technology Development,Falcon,1 47541U 21006EB  23064.13073408  .00029379  00000+0  13139-2 0  9999,2 47541  97.3982 122.6086 0010879  93.8123 266.4356 15.21205752116805,15.21205752,0.0010879,LEO
47542,FLOCK 4S-25,2021,94.49,4.0,+,97.4,Active,1,LEO,USA,USA,Commercial,Earth Observation,Falcon,1 47542U 21006EC  23064.15315645  .00022469  00000+0  92564-3 0  9997,2 47542  97.4013 123.4420 0009603  89.8547 270.3790 15.24066449115919,15.24066449,0.0009603,LEO
47543,FLOCK 4S-1,2021,94.49,4.0,+,97.4,Active,1,LEO,USA,USA,Commercial,Earth Observation,Falcon,1 47543U 21006ED  23064.15141056  .00021412  00000+0  88552-3 0  9990,2 47543  97.4022 123.4382 0009059  84.7561 275.4709 15.23950100115913,15.239501,0.0009059,LEO
47544,FLOCK 4S-30,2021,94.5,4.0,+,97.4,Active,1,LEO,USA,USA,Commercial,Earth Observation,Falcon,1 47544U 21006EE  23064.39507598  .00045497  00000+0  18721-2 0  9993,2 47544  97.4017 123.4143 0007419  98.8493 261.3584 15.23966854117821,15.23966854,0.0007419,LEO
47545,FLOCK 4S-23,2021,94.21,4.0,+,97.4,Active,1,LEO,USA,USA,Commercial,Earth Observation,Falcon,1 47545U 21006EF  23064.15463506  .00098091  00000+0  34800-2 0  9992,2 47545  97.4033 124.0535 0008054  95.9048 264.3110 15.28634850117834,15.2863485,0.0008054,LEO
47546,COSMOS 2549,2021,103.1,5000.0,+,67.15,Active,1,LEO,Russia,Russia/USSR,Military,Earth Observation,Soyuz,1 47546U 21008A   23064.35635652 -.00000015  00000+0  43081-4 0  9993,2 47546  67.1503  22.0015 0006700 263.6011  96.4299 13.96679214106253,13.96679214,0.00067,LEO
47548,STARLINK-1782,2021,95.59,260.0,+,53.05,Active,1,LEO,USA,USA,Commercial,Communications,Falcon,1 47548U 21009A   23064.58431705  .00003849  00000+0  27722-3 0  9994,2 47548  53.0522 270.1806 0001411 104.0712 256.0434 15.06390446115125,15.06390446,0.0001411,LEO
47549,STARLINK-1806,2021,95.59,260.0,+,53.05,Active,1,LEO,USA,USA,Commercial,Communications,Falcon,1 47549U 21009B   23063.98350148  .00003721  00000+0  26855-3 0  9994,2 47549  53.0516 272.8831 0001125  81.0759 279.0358 15.06400138115033,15.06400138,0.0001125,LEO
47550,STARLINK-1909,2021,95.59,260.0,+,53.05,Active,1,LEO,USA,USA,Commercial,Communications,Falcon,1 47550U 21009C   23064.26086903  .00002053  00000+0  15669-3 0  9991,2 47550  53.0527 261.6356 0001199  93.1684 266.9442 15.06398277115216,15.06398277,0.0001199,LEO
47551,STARLINK-1938,2021,95.59,260.0,+,53.05,Active,1,LEO,USA,USA,Commercial,Communications,Falcon,1 47551U 21009D   23063.92360449  .00001019  00000+0  87307-4 0  9994,2 47551  53.0525 283.1484 0000699  88.5807 271.5262 15.06395867114881,15.06395867,6.99e-05,LEO
47552,STARLINK-1940,2021,95.59,260.0,+,53.05,Active,1,LEO,USA,USA,Commercial,Communications,Falcon,1 47552U 21009E   23064.52533830  .00007979  00000+0  55394-3 0  9999,2 47552  53.0528 270.4504 0000504  77.4514 282.6531 15.06396680115713,15.0639668,5.04e-05,LEO
47554,STARLINK-1953,2021,95.59,260.0,+,53.05,Active,1,LEO,USA,USA,Commercial,Communications,Falcon,1 47554U 21009G   23064.06643783  .00031978  00000+0  21564-2 0  9996,2 47554  53.0546 292.5047 0000807  59.6237 300.4832 15.06392354114763,15.06392354,8.07e-05,LEO
47555,STARLINK-1954,2021,95.59,260.0,+,53.05,Active,1,LEO,USA,USA,Commercial,Communications,Falcon,1 47555U 21009H   23063.97520822  .00001728  00000+0  13488-3 0  9991,2 47555  53.0531 282.9188 0000973  70.8293 289.2801 15.06389754114892,15.06389754,9.73e-05,LEO
47556,STARLINK-1955,2021,95.59,260.0,+,53.06,Active,1,LEO,USA,USA,Commercial,Communications,Falcon,1 47556U 21009J   23063.94388085  .00018159  00000+0  12348-2 0  9991,2 47556  53.0553 303.0563 0000477 101.1077 258.9965 15.06401053114606,15.06401053,4.77e-05,LEO
47557,STARLINK-1956,2021,95.59,260.0,+,53.05,Active,1,LEO,USA,USA,Commercial,Communications,Falcon,1 47557U 21009K   23064.23875407  .00021590  00000+0  14638-2 0  9991,2 47557  53.0546 301.7315 0000531  79.2551 280.8498 15.06402311114650,15.06402311,5.31e-05,LEO
47558,STARLINK-1957,2021,95.59,260.0,+,53.05,Active,1,LEO,USA,USA,Commercial,Communications,Falcon,1 47558U 21009L   23064.55114103  .00017420  00000+0  11855-2 0  9991,2 47558  53.0496 270.3321 0001450  91.9492 268.1663 15.06399653115714,15.06399653,0.000145,LEO
47559,STARLINK-1958,2021,95.59,260.0,+,53.05,Active,1,LEO,USA,USA,Commercial,Communications,Falcon,1 47559U 21009M   23064.24981085  .00001495  00000+0  11926-3 0  9994,2 47559  53.0508 261.6874 0001178  77.6632 282.4489 15.06393910115219,15.0639391,0.0001178,LEO
47560,STARLINK-1959,2021,95.59,260.0,+,53.05,Active,1,LEO,USA,USA,Commercial,Communications,Falcon,1 47560U 21009N   23064.24149183  .00002751  00000+0  20347-3 0  9994,2 47560  53.0527 261.7103 0000759  80.8589 279.2485 15.06399239115219,15.06399239,7.59e-05,LEO
47561,STARLINK-1960,2021,95.59,260.0,+,53.05,Active,1,LEO,USA,USA,Commercial,Communications,Falcon,1 47561U 21009P   23064.56128151  .00025299  00000+0  17121-2 0  9999,2 47561  53.0522 280.2883 0000828 103.7647 256.3434 15.06380354115592,15.06380354,8.28e-05,LEO
47562,STARLINK-1961,2021,95.59,260.0,+,53.05,Active,1,LEO,USA,USA,Commercial,Communications,Falcon,1 47562U 21009Q   23063.97889406  .00003610  00000+0  26109-3 0  9991,2 47562  53.0510 282.9033 0000881  64.3825 295.7255 15.06401552114899,15.06401552,8.81e-05,LEO
47563,STARLINK-1962,2021,95.59,260.0,+,53.05,Active,1,LEO,USA,USA,Commercial,Communications,Falcon,1 47563U 21009R   23063.86831898  .00007452  00000+0  51876-3 0  9999,2 47563  53.0517 283.3978 0001294 111.7794 248.3333 15.06390327114877,15.06390327,0.0001294,LEO
47564,STARLINK-1963,2021,95.59,260.0,+,53.05,Active,1,LEO,USA,USA,Commercial,Communications,Falcon,1 47564U 21009S   23063.60384813 -.00001751  00000+0 -98707-4 0  9995,2 47564  53.0520 274.5911 0001249 111.6302 248.4820 15.06399528114970,15.06399528,0.0001249,LEO
47565,STARLINK-1964,2021,95.59,260.0,+,53.05,Active,1,LEO,USA,USA,Commercial,Communications,Falcon,1 47565U 21009T   23063.60016145  .00001031  00000+0  88081-4 0  9999,2 47565  53.0535 274.6001 0001839  92.7798 267.3401 15.06403823114970,15.06403823,0.0001839,LEO
47566,STARLINK-1965,2021,95.59,260.0,+,53.05,Active,1,LEO,USA,USA,Commercial,Communications,Falcon,1 47566U 21009U   23064.25718430  .00002885  00000+0  21258-3 0  9998,2 47566  53.0499 261.6528 0001033  85.3553 274.7554 15.06386603115218,15.06386603,0.0001033,LEO
47567,STARLINK-1966,2021,95.59,260.0,+,53.05,Active,1,LEO,USA,USA,Commercial,Communications,Falcon,1 47567U 21009V   23063.96230897  .00017774  00000+0  12091-2 0  9999,2 47567  53.0534 302.9801 0002032  82.7495 277.3725 15.06401078114603,15.06401078,0.0002032,LEO
47568,STARLINK-1967,2021,95.59,260.0,+,53.05,Active,1,LEO,USA,USA,Commercial,Communications,Falcon,1 47568U 21009W   23064.05445655  .00031526  00000+0  21243-2 0  9991,2 47568  53.0521 302.5661 0000759 135.2672 224.8378 15.06428235114622,15.06428235,7.59e-05,LEO
47570,STARLINK-1969,2021,95.59,260.0,+,53.05,Active,1,LEO,USA,USA,Commercial,Communications,Falcon,1 47570U 21009Y   23064.57786174  .00005871  00000+0  41282-3 0  9995,2 47570  53.0533 260.2141 0001318  95.5230 264.5909 15.06386237115268,15.06386237,0.0001318,LEO
47571,STARLINK-1970,2021,95.59,260.0,+,53.05,Active,1,LEO,USA,USA,Commercial,Communications,Falcon,1 47571U 21009Z   23064.58800037  .00008410  00000+0  58287-3 0  9997,2 47571  53.0515 270.1709 0001340  67.1505 292.9626 15.06398084115729,15.06398084,0.000134,LEO
47572,STARLINK-1971,2021,95.59,260.0,+,53.05,Active,1,LEO,USA,USA,Commercial,Communications,Falcon,1 47572U 21009AA  23063.97244525  .00020184  00000+0  13698-2 0  9992,2 47572  53.0510 272.9324 0001032  90.8204 269.2903 15.06406427115035,15.06406427,0.0001032,LEO
47573,STARLINK-1975,2021,95.59,260.0,+,53.05,Active,1,LEO,USA,USA,Commercial,Communications,Falcon,1 47573U 21009AB  23064.01667471  .00010429  00000+0  71791-3 0  9998,2 47573  53.0539 272.7252 0000920  86.1829 273.9265 15.06403940115031,15.0640394,9.2e-05,LEO
47574,STARLINK-1976,2021,95.59,260.0,+,53.05,Active,1,LEO,USA,USA,Commercial,Communications,Falcon,1 47574U 21009AC  23064.03234198  .00036724  00000+0  24718-2 0  9999,2 47574  53.0537 302.6658 0000973  95.5976 264.5124 15.06396198114617,15.06396198,9.73e-05,LEO
47575,STARLINK-1977,2021,95.59,260.0,+,53.05,Active,1,LEO,USA,USA,Commercial,Communications,Falcon,1 47575U 21009AD  23064.08762953  .00012839  00000+0  87924-3 0  9990,2 47575  53.0528 302.4168 0001042 119.2597 240.8496 15.06400840114623,15.0640084,0.0001042,LEO
47576,STARLINK-1978,2021,95.59,260.0,+,53.05,Active,1,LEO,USA,USA,Commercial,Communications,Falcon,1 47576U 21009AE  23064.25349482  .00004149  00000+0  29725-3 0  9998,2 47576  53.0500 261.6709 0000866  83.6802 276.4285 15.06401633115215,15.06401633,8.66e-05,LEO
47577,STARLINK-1979,2021,95.59,260.0,+,53.05,Active,1,LEO,USA,USA,Commercial,Communications,Falcon,1 47577U 21009AF  23064.55989490  .00015744  00000+0  10738-2 0  9997,2 47577  53.0515 275.2968 0001213  71.7310 288.3811 15.06389790115653,15.0638979,0.0001213,LEO
47578,STARLINK-1980,2021,95.59,260.0,+,53.05,Active,1,LEO,USA,USA,Commercial,Communications,Falcon,1 47578U 21009AG  23064.55390650  .00006017  00000+0  42233-3 0  9991,2 47578  53.0517 280.3232 0001696  89.6412 270.4771 15.06416601115573,15.06416601,0.0001696,LEO
